<?xml version="1.0" encoding="UTF-8"?>
<gpx version="1.1" creator="sutton-yamaska-option2" xmlns="http://www.topografix.net/GPX/1/1">
<trk><name>Day 2 · Hotel Motel Bonsoir → Yamaska lake loop → Knowlton → Sutton</name>
<desc>Custom Day 2: Bonsoir to Yamaska lake loop on bike-legal cycleways, then Knowlton to Mont Sutton. Skips Bromont. Scrubbed.</desc>
<trkseg>
<trkpt lat="45.426074" lon="-72.811549" />
<trkpt lat="45.425895" lon="-72.811621" />
<trkpt lat="45.426130" lon="-72.813129" />
<trkpt lat="45.424857" lon="-72.813062" />
<trkpt lat="45.424077" lon="-72.813040" />
<trkpt lat="45.422674" lon="-72.813006" />
<trkpt lat="45.421792" lon="-72.807584" />
<trkpt lat="45.421050" lon="-72.802755" />
<trkpt lat="45.420693" lon="-72.800692" />
<trkpt lat="45.420388" lon="-72.798663" />
<trkpt lat="45.419525" lon="-72.793631" />
<trkpt lat="45.419189" lon="-72.791481" />
<trkpt lat="45.418784" lon="-72.788884" />
<trkpt lat="45.418617" lon="-72.787928" />
<trkpt lat="45.418126" lon="-72.784842" />
<trkpt lat="45.418095" lon="-72.784598" />
<trkpt lat="45.417699" lon="-72.782228" />
<trkpt lat="45.416887" lon="-72.777364" />
<trkpt lat="45.416798" lon="-72.776763" />
<trkpt lat="45.415738" lon="-72.770320" />
<trkpt lat="45.415450" lon="-72.768745" />
<trkpt lat="45.415307" lon="-72.768201" />
<trkpt lat="45.415164" lon="-72.767729" />
<trkpt lat="45.414985" lon="-72.767178" />
<trkpt lat="45.414797" lon="-72.766715" />
<trkpt lat="45.414639" lon="-72.766314" />
<trkpt lat="45.414551" lon="-72.766124" />
<trkpt lat="45.414385" lon="-72.765798" />
<trkpt lat="45.413639" lon="-72.764494" />
<trkpt lat="45.410739" lon="-72.759836" />
<trkpt lat="45.408041" lon="-72.755589" />
<trkpt lat="45.408077" lon="-72.755543" />
<trkpt lat="45.408239" lon="-72.755333" />
<trkpt lat="45.408300" lon="-72.755275" />
<trkpt lat="45.408384" lon="-72.755193" />
<trkpt lat="45.408446" lon="-72.755157" />
<trkpt lat="45.408590" lon="-72.755073" />
<trkpt lat="45.408790" lon="-72.754974" />
<trkpt lat="45.409067" lon="-72.754858" />
<trkpt lat="45.410620" lon="-72.754211" />
<trkpt lat="45.410579" lon="-72.753964" />
<trkpt lat="45.410491" lon="-72.753748" />
<trkpt lat="45.410303" lon="-72.753406" />
<trkpt lat="45.410097" lon="-72.753211" />
<trkpt lat="45.409916" lon="-72.753100" />
<trkpt lat="45.409940" lon="-72.752604" />
<trkpt lat="45.409917" lon="-72.752336" />
<trkpt lat="45.409841" lon="-72.751892" />
<trkpt lat="45.409682" lon="-72.750914" />
<trkpt lat="45.409510" lon="-72.749967" />
<trkpt lat="45.410351" lon="-72.749730" />
<trkpt lat="45.410940" lon="-72.749564" />
<trkpt lat="45.410975" lon="-72.749554" />
<trkpt lat="45.411021" lon="-72.749541" />
<trkpt lat="45.411139" lon="-72.749508" />
<trkpt lat="45.411621" lon="-72.749372" />
<trkpt lat="45.411748" lon="-72.749327" />
<trkpt lat="45.411858" lon="-72.749145" />
<trkpt lat="45.412218" lon="-72.748847" />
<trkpt lat="45.412348" lon="-72.748841" />
<trkpt lat="45.412475" lon="-72.748768" />
<trkpt lat="45.412647" lon="-72.748709" />
<trkpt lat="45.412709" lon="-72.748681" />
<trkpt lat="45.412754" lon="-72.748661" />
<trkpt lat="45.412692" lon="-72.748183" />
<trkpt lat="45.412621" lon="-72.747630" />
<trkpt lat="45.412564" lon="-72.747191" />
<trkpt lat="45.412555" lon="-72.747125" />
<trkpt lat="45.412488" lon="-72.746608" />
<trkpt lat="45.412472" lon="-72.746482" />
<trkpt lat="45.412351" lon="-72.745544" />
<trkpt lat="45.412219" lon="-72.744525" />
<trkpt lat="45.413789" lon="-72.744108" />
<trkpt lat="45.414659" lon="-72.743877" />
<trkpt lat="45.414719" lon="-72.743234" />
<trkpt lat="45.414745" lon="-72.742839" />
<trkpt lat="45.414745" lon="-72.742761" />
<trkpt lat="45.414744" lon="-72.742615" />
<trkpt lat="45.414744" lon="-72.742572" />
<trkpt lat="45.414747" lon="-72.742279" />
<trkpt lat="45.414764" lon="-72.741589" />
<trkpt lat="45.414774" lon="-72.740623" />
<trkpt lat="45.414862" lon="-72.739719" />
<trkpt lat="45.414879" lon="-72.739575" />
<trkpt lat="45.414965" lon="-72.739057" />
<trkpt lat="45.415056" lon="-72.738366" />
<trkpt lat="45.415094" lon="-72.737773" />
<trkpt lat="45.415029" lon="-72.737317" />
<trkpt lat="45.414871" lon="-72.736235" />
<trkpt lat="45.414735" lon="-72.735142" />
<trkpt lat="45.414711" lon="-72.734507" />
<trkpt lat="45.414704" lon="-72.733943" />
<trkpt lat="45.414714" lon="-72.732685" />
<trkpt lat="45.414708" lon="-72.731421" />
<trkpt lat="45.414668" lon="-72.730175" />
<trkpt lat="45.414688" lon="-72.728989" />
<trkpt lat="45.414679" lon="-72.727807" />
<trkpt lat="45.414674" lon="-72.727687" />
<trkpt lat="45.416176" lon="-72.727276" />
<trkpt lat="45.417599" lon="-72.726892" />
<trkpt lat="45.417882" lon="-72.726763" />
<trkpt lat="45.417973" lon="-72.726740" />
<trkpt lat="45.418333" lon="-72.726701" />
<trkpt lat="45.420133" lon="-72.726181" />
<trkpt lat="45.420667" lon="-72.726045" />
<trkpt lat="45.420953" lon="-72.725963" />
<trkpt lat="45.420982" lon="-72.725962" />
<trkpt lat="45.421516" lon="-72.725923" />
<trkpt lat="45.421635" lon="-72.725917" />
<trkpt lat="45.421671" lon="-72.725829" />
<trkpt lat="45.421705" lon="-72.725781" />
<trkpt lat="45.421736" lon="-72.725774" />
<trkpt lat="45.421803" lon="-72.725806" />
<trkpt lat="45.421801" lon="-72.723818" />
<trkpt lat="45.421763" lon="-72.719824" />
<trkpt lat="45.421735" lon="-72.718176" />
<trkpt lat="45.421753" lon="-72.717036" />
<trkpt lat="45.421734" lon="-72.716875" />
<trkpt lat="45.421670" lon="-72.716709" />
<trkpt lat="45.421595" lon="-72.716573" />
<trkpt lat="45.421649" lon="-72.716343" />
<trkpt lat="45.421653" lon="-72.716202" />
<trkpt lat="45.421607" lon="-72.714904" />
<trkpt lat="45.421548" lon="-72.710099" />
<trkpt lat="45.421419" lon="-72.710097" />
<trkpt lat="45.421378" lon="-72.706141" />
<trkpt lat="45.421420" lon="-72.703217" />
<trkpt lat="45.421432" lon="-72.702468" />
<trkpt lat="45.421498" lon="-72.699684" />
<trkpt lat="45.421508" lon="-72.698644" />
<trkpt lat="45.421498" lon="-72.697982" />
<trkpt lat="45.421468" lon="-72.697234" />
<trkpt lat="45.421335" lon="-72.695058" />
<trkpt lat="45.421260" lon="-72.694055" />
<trkpt lat="45.421110" lon="-72.692055" />
<trkpt lat="45.421022" lon="-72.690318" />
<trkpt lat="45.421002" lon="-72.689893" />
<trkpt lat="45.420945" lon="-72.688185" />
<trkpt lat="45.420927" lon="-72.687307" />
<trkpt lat="45.420910" lon="-72.686508" />
<trkpt lat="45.420852" lon="-72.681260" />
<trkpt lat="45.420828" lon="-72.679105" />
<trkpt lat="45.420823" lon="-72.678643" />
<trkpt lat="45.420777" lon="-72.672151" />
<trkpt lat="45.420707" lon="-72.667259" />
<trkpt lat="45.420579" lon="-72.664386" />
<trkpt lat="45.420382" lon="-72.660981" />
<trkpt lat="45.420014" lon="-72.655930" />
<trkpt lat="45.419472" lon="-72.648480" />
<trkpt lat="45.419128" lon="-72.643355" />
<trkpt lat="45.419094" lon="-72.642843" />
<trkpt lat="45.419048" lon="-72.642161" />
<trkpt lat="45.418900" lon="-72.639957" />
<trkpt lat="45.418868" lon="-72.639381" />
<trkpt lat="45.418790" lon="-72.638171" />
<trkpt lat="45.418537" lon="-72.634304" />
<trkpt lat="45.418503" lon="-72.633793" />
<trkpt lat="45.418381" lon="-72.631917" />
<trkpt lat="45.418276" lon="-72.630523" />
<trkpt lat="45.418405" lon="-72.630430" />
<trkpt lat="45.418497" lon="-72.630345" />
<trkpt lat="45.418597" lon="-72.630222" />
<trkpt lat="45.418666" lon="-72.630090" />
<trkpt lat="45.418756" lon="-72.629839" />
<trkpt lat="45.418788" lon="-72.629587" />
<trkpt lat="45.418781" lon="-72.629338" />
<trkpt lat="45.418731" lon="-72.628869" />
<trkpt lat="45.418499" lon="-72.627800" />
<trkpt lat="45.418477" lon="-72.627610" />
<trkpt lat="45.418423" lon="-72.626455" />
<trkpt lat="45.418268" lon="-72.624821" />
<trkpt lat="45.418286" lon="-72.624643" />
<trkpt lat="45.418325" lon="-72.624500" />
<trkpt lat="45.418421" lon="-72.624241" />
<trkpt lat="45.418524" lon="-72.624079" />
<trkpt lat="45.418607" lon="-72.623995" />
<trkpt lat="45.418699" lon="-72.623935" />
<trkpt lat="45.418778" lon="-72.623918" />
<trkpt lat="45.418878" lon="-72.623926" />
<trkpt lat="45.418924" lon="-72.623944" />
<trkpt lat="45.419066" lon="-72.624041" />
<trkpt lat="45.419173" lon="-72.624080" />
<trkpt lat="45.419322" lon="-72.624093" />
<trkpt lat="45.419472" lon="-72.624051" />
<trkpt lat="45.419594" lon="-72.623977" />
<trkpt lat="45.420175" lon="-72.623459" />
<trkpt lat="45.420242" lon="-72.623413" />
<trkpt lat="45.420313" lon="-72.623394" />
<trkpt lat="45.420459" lon="-72.623379" />
<trkpt lat="45.420523" lon="-72.623352" />
<trkpt lat="45.420570" lon="-72.623301" />
<trkpt lat="45.420639" lon="-72.623194" />
<trkpt lat="45.420645" lon="-72.623038" />
<trkpt lat="45.420673" lon="-72.622861" />
<trkpt lat="45.420704" lon="-72.622755" />
<trkpt lat="45.420744" lon="-72.622702" />
<trkpt lat="45.420820" lon="-72.622672" />
<trkpt lat="45.421145" lon="-72.622753" />
<trkpt lat="45.421558" lon="-72.622924" />
<trkpt lat="45.421769" lon="-72.622961" />
<trkpt lat="45.422089" lon="-72.622913" />
<trkpt lat="45.422191" lon="-72.622918" />
<trkpt lat="45.422556" lon="-72.622988" />
<trkpt lat="45.422684" lon="-72.622972" />
<trkpt lat="45.423490" lon="-72.622527" />
<trkpt lat="45.424003" lon="-72.622111" />
<trkpt lat="45.424038" lon="-72.621590" />
<trkpt lat="45.424019" lon="-72.621461" />
<trkpt lat="45.423915" lon="-72.621178" />
<trkpt lat="45.423901" lon="-72.621110" />
<trkpt lat="45.423901" lon="-72.620975" />
<trkpt lat="45.423917" lon="-72.620563" />
<trkpt lat="45.424027" lon="-72.620014" />
<trkpt lat="45.424037" lon="-72.619878" />
<trkpt lat="45.424070" lon="-72.619212" />
<trkpt lat="45.424059" lon="-72.619126" />
<trkpt lat="45.424023" lon="-72.618998" />
<trkpt lat="45.424024" lon="-72.618933" />
<trkpt lat="45.424057" lon="-72.618795" />
<trkpt lat="45.424067" lon="-72.618688" />
<trkpt lat="45.424052" lon="-72.618209" />
<trkpt lat="45.424073" lon="-72.617977" />
<trkpt lat="45.424022" lon="-72.617931" />
<trkpt lat="45.417760" lon="-72.610767" />
<trkpt lat="45.417492" lon="-72.610463" />
<trkpt lat="45.417468" lon="-72.610382" />
<trkpt lat="45.417467" lon="-72.610327" />
<trkpt lat="45.417477" lon="-72.610281" />
<trkpt lat="45.417541" lon="-72.610180" />
<trkpt lat="45.417543" lon="-72.610092" />
<trkpt lat="45.417508" lon="-72.609306" />
<trkpt lat="45.417495" lon="-72.609220" />
<trkpt lat="45.417469" lon="-72.609114" />
<trkpt lat="45.417401" lon="-72.608910" />
<trkpt lat="45.417379" lon="-72.608786" />
<trkpt lat="45.417381" lon="-72.608717" />
<trkpt lat="45.417411" lon="-72.608547" />
<trkpt lat="45.417591" lon="-72.608201" />
<trkpt lat="45.418158" lon="-72.607111" />
<trkpt lat="45.418335" lon="-72.606936" />
<trkpt lat="45.418568" lon="-72.606818" />
<trkpt lat="45.418765" lon="-72.606764" />
<trkpt lat="45.419081" lon="-72.606770" />
<trkpt lat="45.419207" lon="-72.606729" />
<trkpt lat="45.419552" lon="-72.606494" />
<trkpt lat="45.419688" lon="-72.606346" />
<trkpt lat="45.419722" lon="-72.606200" />
<trkpt lat="45.419807" lon="-72.605528" />
<trkpt lat="45.419796" lon="-72.605355" />
<trkpt lat="45.419660" lon="-72.605005" />
<trkpt lat="45.419629" lon="-72.604737" />
<trkpt lat="45.419670" lon="-72.604537" />
<trkpt lat="45.419793" lon="-72.604285" />
<trkpt lat="45.419803" lon="-72.604168" />
<trkpt lat="45.419787" lon="-72.603789" />
<trkpt lat="45.419854" lon="-72.603585" />
<trkpt lat="45.419953" lon="-72.603086" />
<trkpt lat="45.419997" lon="-72.602899" />
<trkpt lat="45.420156" lon="-72.602660" />
<trkpt lat="45.420248" lon="-72.602482" />
<trkpt lat="45.420333" lon="-72.602235" />
<trkpt lat="45.420370" lon="-72.601864" />
<trkpt lat="45.420405" lon="-72.601637" />
<trkpt lat="45.420547" lon="-72.601335" />
<trkpt lat="45.420680" lon="-72.601115" />
<trkpt lat="45.420798" lon="-72.601027" />
<trkpt lat="45.421083" lon="-72.600884" />
<trkpt lat="45.421205" lon="-72.600796" />
<trkpt lat="45.421307" lon="-72.600687" />
<trkpt lat="45.421386" lon="-72.600530" />
<trkpt lat="45.421385" lon="-72.600376" />
<trkpt lat="45.421344" lon="-72.600239" />
<trkpt lat="45.421098" lon="-72.599765" />
<trkpt lat="45.421052" lon="-72.599608" />
<trkpt lat="45.421078" lon="-72.599461" />
<trkpt lat="45.421147" lon="-72.599303" />
<trkpt lat="45.421462" lon="-72.598967" />
<trkpt lat="45.421686" lon="-72.598852" />
<trkpt lat="45.421821" lon="-72.598696" />
<trkpt lat="45.421903" lon="-72.598388" />
<trkpt lat="45.421947" lon="-72.597958" />
<trkpt lat="45.422414" lon="-72.596997" />
<trkpt lat="45.422468" lon="-72.596844" />
<trkpt lat="45.422470" lon="-72.596616" />
<trkpt lat="45.422433" lon="-72.596360" />
<trkpt lat="45.422342" lon="-72.596177" />
<trkpt lat="45.421791" lon="-72.595773" />
<trkpt lat="45.421612" lon="-72.595662" />
<trkpt lat="45.421368" lon="-72.595345" />
<trkpt lat="45.421057" lon="-72.595168" />
<trkpt lat="45.420741" lon="-72.594830" />
<trkpt lat="45.420601" lon="-72.594260" />
<trkpt lat="45.420512" lon="-72.594012" />
<trkpt lat="45.420374" lon="-72.593571" />
<trkpt lat="45.420266" lon="-72.593081" />
<trkpt lat="45.420243" lon="-72.592790" />
<trkpt lat="45.420267" lon="-72.592594" />
<trkpt lat="45.420350" lon="-72.592199" />
<trkpt lat="45.420397" lon="-72.592024" />
<trkpt lat="45.420593" lon="-72.591724" />
<trkpt lat="45.420967" lon="-72.590921" />
<trkpt lat="45.421162" lon="-72.590706" />
<trkpt lat="45.421217" lon="-72.590561" />
<trkpt lat="45.421230" lon="-72.590396" />
<trkpt lat="45.421225" lon="-72.590106" />
<trkpt lat="45.421257" lon="-72.589991" />
<trkpt lat="45.421315" lon="-72.589888" />
<trkpt lat="45.421437" lon="-72.589801" />
<trkpt lat="45.421562" lon="-72.589749" />
<trkpt lat="45.421872" lon="-72.589739" />
<trkpt lat="45.422311" lon="-72.589562" />
<trkpt lat="45.422599" lon="-72.589311" />
<trkpt lat="45.422706" lon="-72.589169" />
<trkpt lat="45.422761" lon="-72.589030" />
<trkpt lat="45.422772" lon="-72.588857" />
<trkpt lat="45.422769" lon="-72.588636" />
<trkpt lat="45.422737" lon="-72.588428" />
<trkpt lat="45.422284" lon="-72.587386" />
<trkpt lat="45.422236" lon="-72.587208" />
<trkpt lat="45.422235" lon="-72.587065" />
<trkpt lat="45.422256" lon="-72.586393" />
<trkpt lat="45.422243" lon="-72.586237" />
<trkpt lat="45.422207" lon="-72.585997" />
<trkpt lat="45.421976" lon="-72.585520" />
<trkpt lat="45.421841" lon="-72.584723" />
<trkpt lat="45.421854" lon="-72.584402" />
<trkpt lat="45.421834" lon="-72.583703" />
<trkpt lat="45.421861" lon="-72.583467" />
<trkpt lat="45.421912" lon="-72.583249" />
<trkpt lat="45.421914" lon="-72.583035" />
<trkpt lat="45.421848" lon="-72.582630" />
<trkpt lat="45.421849" lon="-72.582456" />
<trkpt lat="45.421895" lon="-72.582237" />
<trkpt lat="45.421955" lon="-72.581998" />
<trkpt lat="45.421960" lon="-72.581788" />
<trkpt lat="45.421917" lon="-72.581296" />
<trkpt lat="45.421939" lon="-72.581078" />
<trkpt lat="45.422050" lon="-72.580700" />
<trkpt lat="45.422187" lon="-72.580215" />
<trkpt lat="45.422251" lon="-72.580081" />
<trkpt lat="45.422187" lon="-72.580215" />
<trkpt lat="45.422050" lon="-72.580700" />
<trkpt lat="45.421939" lon="-72.581078" />
<trkpt lat="45.421917" lon="-72.581296" />
<trkpt lat="45.421960" lon="-72.581788" />
<trkpt lat="45.421955" lon="-72.581998" />
<trkpt lat="45.421895" lon="-72.582237" />
<trkpt lat="45.421849" lon="-72.582456" />
<trkpt lat="45.421848" lon="-72.582630" />
<trkpt lat="45.421882" lon="-72.582817" />
<trkpt lat="45.421914" lon="-72.583035" />
<trkpt lat="45.421912" lon="-72.583249" />
<trkpt lat="45.421861" lon="-72.583467" />
<trkpt lat="45.421834" lon="-72.583703" />
<trkpt lat="45.421854" lon="-72.584402" />
<trkpt lat="45.421841" lon="-72.584723" />
<trkpt lat="45.421976" lon="-72.585520" />
<trkpt lat="45.422207" lon="-72.585997" />
<trkpt lat="45.422243" lon="-72.586237" />
<trkpt lat="45.422256" lon="-72.586393" />
<trkpt lat="45.422235" lon="-72.587065" />
<trkpt lat="45.422236" lon="-72.587208" />
<trkpt lat="45.422284" lon="-72.587386" />
<trkpt lat="45.422737" lon="-72.588428" />
<trkpt lat="45.422769" lon="-72.588636" />
<trkpt lat="45.422772" lon="-72.588857" />
<trkpt lat="45.422761" lon="-72.589030" />
<trkpt lat="45.422706" lon="-72.589169" />
<trkpt lat="45.422599" lon="-72.589311" />
<trkpt lat="45.422311" lon="-72.589562" />
<trkpt lat="45.422157" lon="-72.589629" />
<trkpt lat="45.421872" lon="-72.589739" />
<trkpt lat="45.421562" lon="-72.589749" />
<trkpt lat="45.421437" lon="-72.589801" />
<trkpt lat="45.421315" lon="-72.589888" />
<trkpt lat="45.421257" lon="-72.589991" />
<trkpt lat="45.421225" lon="-72.590106" />
<trkpt lat="45.421230" lon="-72.590396" />
<trkpt lat="45.421217" lon="-72.590561" />
<trkpt lat="45.421162" lon="-72.590706" />
<trkpt lat="45.421074" lon="-72.590805" />
<trkpt lat="45.420967" lon="-72.590921" />
<trkpt lat="45.420593" lon="-72.591724" />
<trkpt lat="45.420397" lon="-72.592024" />
<trkpt lat="45.420350" lon="-72.592199" />
<trkpt lat="45.420267" lon="-72.592594" />
<trkpt lat="45.420243" lon="-72.592790" />
<trkpt lat="45.420266" lon="-72.593081" />
<trkpt lat="45.420374" lon="-72.593571" />
<trkpt lat="45.420512" lon="-72.594012" />
<trkpt lat="45.420601" lon="-72.594260" />
<trkpt lat="45.420741" lon="-72.594830" />
<trkpt lat="45.421057" lon="-72.595168" />
<trkpt lat="45.421368" lon="-72.595345" />
<trkpt lat="45.421612" lon="-72.595662" />
<trkpt lat="45.421791" lon="-72.595773" />
<trkpt lat="45.422342" lon="-72.596177" />
<trkpt lat="45.422433" lon="-72.596360" />
<trkpt lat="45.422470" lon="-72.596616" />
<trkpt lat="45.422468" lon="-72.596844" />
<trkpt lat="45.422414" lon="-72.596997" />
<trkpt lat="45.421947" lon="-72.597958" />
<trkpt lat="45.421903" lon="-72.598388" />
<trkpt lat="45.421821" lon="-72.598696" />
<trkpt lat="45.421686" lon="-72.598852" />
<trkpt lat="45.421462" lon="-72.598967" />
<trkpt lat="45.421147" lon="-72.599303" />
<trkpt lat="45.421078" lon="-72.599461" />
<trkpt lat="45.421052" lon="-72.599608" />
<trkpt lat="45.421098" lon="-72.599765" />
<trkpt lat="45.421344" lon="-72.600239" />
<trkpt lat="45.421385" lon="-72.600376" />
<trkpt lat="45.421386" lon="-72.600530" />
<trkpt lat="45.421307" lon="-72.600687" />
<trkpt lat="45.421205" lon="-72.600796" />
<trkpt lat="45.421082" lon="-72.600884" />
<trkpt lat="45.420798" lon="-72.601027" />
<trkpt lat="45.420680" lon="-72.601115" />
<trkpt lat="45.420547" lon="-72.601335" />
<trkpt lat="45.420405" lon="-72.601637" />
<trkpt lat="45.420370" lon="-72.601865" />
<trkpt lat="45.420333" lon="-72.602235" />
<trkpt lat="45.420248" lon="-72.602482" />
<trkpt lat="45.420156" lon="-72.602660" />
<trkpt lat="45.419997" lon="-72.602899" />
<trkpt lat="45.419953" lon="-72.603086" />
<trkpt lat="45.419854" lon="-72.603585" />
<trkpt lat="45.419787" lon="-72.603789" />
<trkpt lat="45.419793" lon="-72.603992" />
<trkpt lat="45.419803" lon="-72.604168" />
<trkpt lat="45.419793" lon="-72.604286" />
<trkpt lat="45.419670" lon="-72.604537" />
<trkpt lat="45.419629" lon="-72.604737" />
<trkpt lat="45.419660" lon="-72.605005" />
<trkpt lat="45.419795" lon="-72.605355" />
<trkpt lat="45.419807" lon="-72.605528" />
<trkpt lat="45.419722" lon="-72.606200" />
<trkpt lat="45.419688" lon="-72.606346" />
<trkpt lat="45.419552" lon="-72.606494" />
<trkpt lat="45.419207" lon="-72.606729" />
<trkpt lat="45.419081" lon="-72.606770" />
<trkpt lat="45.418945" lon="-72.606766" />
<trkpt lat="45.418765" lon="-72.606764" />
<trkpt lat="45.418568" lon="-72.606818" />
<trkpt lat="45.418335" lon="-72.606936" />
<trkpt lat="45.418157" lon="-72.607111" />
<trkpt lat="45.417894" lon="-72.607618" />
<trkpt lat="45.417591" lon="-72.608201" />
<trkpt lat="45.417411" lon="-72.608547" />
<trkpt lat="45.417381" lon="-72.608717" />
<trkpt lat="45.417379" lon="-72.608786" />
<trkpt lat="45.417401" lon="-72.608910" />
<trkpt lat="45.417469" lon="-72.609114" />
<trkpt lat="45.417494" lon="-72.609220" />
<trkpt lat="45.417508" lon="-72.609306" />
<trkpt lat="45.417543" lon="-72.610092" />
<trkpt lat="45.417541" lon="-72.610180" />
<trkpt lat="45.417477" lon="-72.610281" />
<trkpt lat="45.417468" lon="-72.610382" />
<trkpt lat="45.417492" lon="-72.610463" />
<trkpt lat="45.417760" lon="-72.610767" />
<trkpt lat="45.424022" lon="-72.617931" />
<trkpt lat="45.424073" lon="-72.617977" />
<trkpt lat="45.424119" lon="-72.618019" />
<trkpt lat="45.424267" lon="-72.618041" />
<trkpt lat="45.424399" lon="-72.618021" />
<trkpt lat="45.424788" lon="-72.617962" />
<trkpt lat="45.424998" lon="-72.618065" />
<trkpt lat="45.425096" lon="-72.618149" />
<trkpt lat="45.425207" lon="-72.618245" />
<trkpt lat="45.425471" lon="-72.618466" />
<trkpt lat="45.425654" lon="-72.618564" />
<trkpt lat="45.425757" lon="-72.618606" />
<trkpt lat="45.425843" lon="-72.618569" />
<trkpt lat="45.425883" lon="-72.618532" />
<trkpt lat="45.425976" lon="-72.618398" />
<trkpt lat="45.426050" lon="-72.618202" />
<trkpt lat="45.426162" lon="-72.617984" />
<trkpt lat="45.426440" lon="-72.617503" />
<trkpt lat="45.426577" lon="-72.617203" />
<trkpt lat="45.426628" lon="-72.617135" />
<trkpt lat="45.426715" lon="-72.617100" />
<trkpt lat="45.426802" lon="-72.617095" />
<trkpt lat="45.426911" lon="-72.617119" />
<trkpt lat="45.427109" lon="-72.617218" />
<trkpt lat="45.427198" lon="-72.617192" />
<trkpt lat="45.427308" lon="-72.617134" />
<trkpt lat="45.427430" lon="-72.616856" />
<trkpt lat="45.427603" lon="-72.616404" />
<trkpt lat="45.427611" lon="-72.616247" />
<trkpt lat="45.427658" lon="-72.616131" />
<trkpt lat="45.427696" lon="-72.616077" />
<trkpt lat="45.427772" lon="-72.616044" />
<trkpt lat="45.427849" lon="-72.616062" />
<trkpt lat="45.428061" lon="-72.616156" />
<trkpt lat="45.427984" lon="-72.616364" />
<trkpt lat="45.428030" lon="-72.616231" />
<trkpt lat="45.428061" lon="-72.616156" />
<trkpt lat="45.428106" lon="-72.616013" />
<trkpt lat="45.428149" lon="-72.615909" />
<trkpt lat="45.428266" lon="-72.615709" />
<trkpt lat="45.428325" lon="-72.615653" />
<trkpt lat="45.428490" lon="-72.615532" />
<trkpt lat="45.429141" lon="-72.615272" />
<trkpt lat="45.429697" lon="-72.615150" />
<trkpt lat="45.429918" lon="-72.615102" />
<trkpt lat="45.430247" lon="-72.615030" />
<trkpt lat="45.430344" lon="-72.615077" />
<trkpt lat="45.430414" lon="-72.615148" />
<trkpt lat="45.430516" lon="-72.615463" />
<trkpt lat="45.430605" lon="-72.615621" />
<trkpt lat="45.430827" lon="-72.615878" />
<trkpt lat="45.430871" lon="-72.616020" />
<trkpt lat="45.430880" lon="-72.616128" />
<trkpt lat="45.430902" lon="-72.616813" />
<trkpt lat="45.430946" lon="-72.617945" />
<trkpt lat="45.430973" lon="-72.618673" />
<trkpt lat="45.430978" lon="-72.618811" />
<trkpt lat="45.431005" lon="-72.619334" />
<trkpt lat="45.431046" lon="-72.620139" />
<trkpt lat="45.431207" lon="-72.623059" />
<trkpt lat="45.431232" lon="-72.623742" />
<trkpt lat="45.431280" lon="-72.623913" />
<trkpt lat="45.431348" lon="-72.623981" />
<trkpt lat="45.431873" lon="-72.624232" />
<trkpt lat="45.432265" lon="-72.624349" />
<trkpt lat="45.432461" lon="-72.624435" />
<trkpt lat="45.432737" lon="-72.624568" />
<trkpt lat="45.432982" lon="-72.624725" />
<trkpt lat="45.434193" lon="-72.625463" />
<trkpt lat="45.434238" lon="-72.625481" />
<trkpt lat="45.434308" lon="-72.625494" />
<trkpt lat="45.434652" lon="-72.625522" />
<trkpt lat="45.434953" lon="-72.625582" />
<trkpt lat="45.435195" lon="-72.625680" />
<trkpt lat="45.435397" lon="-72.625816" />
<trkpt lat="45.435598" lon="-72.625979" />
<trkpt lat="45.436053" lon="-72.626401" />
<trkpt lat="45.436159" lon="-72.626486" />
<trkpt lat="45.436272" lon="-72.626549" />
<trkpt lat="45.436405" lon="-72.626592" />
<trkpt lat="45.436589" lon="-72.626600" />
<trkpt lat="45.437569" lon="-72.626602" />
<trkpt lat="45.437618" lon="-72.626578" />
<trkpt lat="45.437707" lon="-72.626533" />
<trkpt lat="45.437761" lon="-72.626475" />
<trkpt lat="45.438060" lon="-72.626035" />
<trkpt lat="45.438120" lon="-72.625979" />
<trkpt lat="45.438180" lon="-72.625932" />
<trkpt lat="45.438259" lon="-72.625885" />
<trkpt lat="45.438341" lon="-72.625863" />
<trkpt lat="45.438435" lon="-72.625835" />
<trkpt lat="45.439281" lon="-72.625691" />
<trkpt lat="45.439378" lon="-72.625642" />
<trkpt lat="45.440596" lon="-72.624595" />
<trkpt lat="45.441208" lon="-72.624000" />
<trkpt lat="45.441964" lon="-72.623499" />
<trkpt lat="45.442016" lon="-72.623421" />
<trkpt lat="45.442046" lon="-72.623287" />
<trkpt lat="45.442240" lon="-72.622236" />
<trkpt lat="45.442461" lon="-72.621598" />
<trkpt lat="45.442491" lon="-72.621237" />
<trkpt lat="45.442441" lon="-72.621010" />
<trkpt lat="45.442382" lon="-72.620925" />
<trkpt lat="45.441857" lon="-72.620732" />
<trkpt lat="45.441614" lon="-72.620584" />
<trkpt lat="45.441508" lon="-72.620416" />
<trkpt lat="45.441369" lon="-72.619936" />
<trkpt lat="45.440985" lon="-72.619650" />
<trkpt lat="45.440734" lon="-72.619247" />
<trkpt lat="45.440659" lon="-72.618995" />
<trkpt lat="45.440619" lon="-72.618606" />
<trkpt lat="45.440672" lon="-72.618137" />
<trkpt lat="45.440737" lon="-72.617907" />
<trkpt lat="45.440762" lon="-72.617651" />
<trkpt lat="45.440726" lon="-72.617479" />
<trkpt lat="45.440542" lon="-72.617071" />
<trkpt lat="45.440391" lon="-72.616941" />
<trkpt lat="45.440045" lon="-72.617144" />
<trkpt lat="45.439648" lon="-72.616986" />
<trkpt lat="45.439501" lon="-72.616787" />
<trkpt lat="45.439246" lon="-72.616118" />
<trkpt lat="45.439216" lon="-72.615874" />
<trkpt lat="45.439263" lon="-72.615426" />
<trkpt lat="45.439220" lon="-72.615016" />
<trkpt lat="45.439310" lon="-72.614376" />
<trkpt lat="45.439446" lon="-72.612494" />
<trkpt lat="45.439409" lon="-72.612187" />
<trkpt lat="45.439257" lon="-72.611493" />
<trkpt lat="45.439224" lon="-72.610557" />
<trkpt lat="45.439185" lon="-72.609461" />
<trkpt lat="45.439077" lon="-72.608507" />
<trkpt lat="45.439032" lon="-72.608350" />
<trkpt lat="45.438749" lon="-72.607968" />
<trkpt lat="45.438459" lon="-72.607457" />
<trkpt lat="45.438033" lon="-72.607047" />
<trkpt lat="45.437769" lon="-72.606624" />
<trkpt lat="45.436372" lon="-72.604976" />
<trkpt lat="45.436301" lon="-72.604867" />
<trkpt lat="45.436236" lon="-72.604568" />
<trkpt lat="45.436234" lon="-72.604349" />
<trkpt lat="45.436415" lon="-72.603434" />
<trkpt lat="45.436492" lon="-72.603244" />
<trkpt lat="45.437283" lon="-72.601900" />
<trkpt lat="45.437402" lon="-72.601686" />
<trkpt lat="45.437484" lon="-72.601487" />
<trkpt lat="45.437513" lon="-72.601383" />
<trkpt lat="45.437569" lon="-72.601204" />
<trkpt lat="45.437610" lon="-72.601122" />
<trkpt lat="45.437705" lon="-72.601050" />
<trkpt lat="45.437914" lon="-72.600930" />
<trkpt lat="45.438048" lon="-72.600822" />
<trkpt lat="45.438114" lon="-72.600734" />
<trkpt lat="45.438386" lon="-72.600248" />
<trkpt lat="45.438734" lon="-72.599914" />
<trkpt lat="45.438911" lon="-72.599671" />
<trkpt lat="45.438953" lon="-72.599599" />
<trkpt lat="45.438977" lon="-72.599492" />
<trkpt lat="45.438990" lon="-72.599417" />
<trkpt lat="45.438969" lon="-72.599289" />
<trkpt lat="45.438921" lon="-72.599066" />
<trkpt lat="45.438904" lon="-72.598898" />
<trkpt lat="45.438913" lon="-72.598801" />
<trkpt lat="45.438964" lon="-72.598690" />
<trkpt lat="45.439061" lon="-72.598548" />
<trkpt lat="45.439180" lon="-72.598449" />
<trkpt lat="45.439284" lon="-72.598414" />
<trkpt lat="45.439458" lon="-72.598394" />
<trkpt lat="45.439935" lon="-72.598345" />
<trkpt lat="45.440130" lon="-72.598355" />
<trkpt lat="45.440276" lon="-72.598342" />
<trkpt lat="45.440584" lon="-72.598190" />
<trkpt lat="45.440719" lon="-72.598155" />
<trkpt lat="45.440821" lon="-72.598186" />
<trkpt lat="45.440952" lon="-72.598259" />
<trkpt lat="45.441077" lon="-72.598297" />
<trkpt lat="45.441279" lon="-72.598313" />
<trkpt lat="45.441396" lon="-72.598328" />
<trkpt lat="45.441697" lon="-72.598472" />
<trkpt lat="45.441789" lon="-72.598521" />
<trkpt lat="45.441966" lon="-72.598720" />
<trkpt lat="45.442093" lon="-72.598756" />
<trkpt lat="45.442191" lon="-72.598725" />
<trkpt lat="45.442269" lon="-72.598646" />
<trkpt lat="45.442328" lon="-72.598526" />
<trkpt lat="45.442351" lon="-72.598342" />
<trkpt lat="45.442418" lon="-72.598100" />
<trkpt lat="45.442445" lon="-72.597768" />
<trkpt lat="45.442412" lon="-72.597545" />
<trkpt lat="45.442353" lon="-72.597323" />
<trkpt lat="45.442095" lon="-72.596695" />
<trkpt lat="45.441983" lon="-72.596512" />
<trkpt lat="45.441683" lon="-72.596192" />
<trkpt lat="45.441653" lon="-72.596112" />
<trkpt lat="45.441633" lon="-72.595923" />
<trkpt lat="45.441628" lon="-72.595811" />
<trkpt lat="45.441609" lon="-72.595312" />
<trkpt lat="45.441587" lon="-72.595240" />
<trkpt lat="45.441481" lon="-72.594849" />
<trkpt lat="45.441312" lon="-72.594459" />
<trkpt lat="45.441098" lon="-72.593315" />
<trkpt lat="45.441134" lon="-72.592740" />
<trkpt lat="45.441285" lon="-72.592232" />
<trkpt lat="45.441595" lon="-72.591790" />
<trkpt lat="45.441757" lon="-72.591521" />
<trkpt lat="45.441802" lon="-72.591219" />
<trkpt lat="45.441771" lon="-72.590981" />
<trkpt lat="45.441486" lon="-72.590570" />
<trkpt lat="45.441403" lon="-72.590408" />
<trkpt lat="45.441379" lon="-72.590225" />
<trkpt lat="45.441363" lon="-72.589833" />
<trkpt lat="45.441442" lon="-72.589459" />
<trkpt lat="45.441552" lon="-72.588751" />
<trkpt lat="45.441656" lon="-72.588471" />
<trkpt lat="45.441946" lon="-72.588210" />
<trkpt lat="45.442005" lon="-72.588040" />
<trkpt lat="45.442006" lon="-72.587898" />
<trkpt lat="45.441945" lon="-72.586905" />
<trkpt lat="45.441966" lon="-72.586432" />
<trkpt lat="45.442089" lon="-72.585920" />
<trkpt lat="45.442120" lon="-72.585711" />
<trkpt lat="45.442049" lon="-72.585385" />
<trkpt lat="45.441749" lon="-72.584679" />
<trkpt lat="45.441714" lon="-72.584047" />
<trkpt lat="45.441601" lon="-72.583857" />
<trkpt lat="45.441484" lon="-72.583815" />
<trkpt lat="45.440424" lon="-72.583779" />
<trkpt lat="45.440175" lon="-72.583730" />
<trkpt lat="45.439913" lon="-72.583609" />
<trkpt lat="45.439000" lon="-72.582935" />
<trkpt lat="45.438221" lon="-72.582722" />
<trkpt lat="45.438048" lon="-72.582757" />
<trkpt lat="45.437829" lon="-72.582865" />
<trkpt lat="45.437563" lon="-72.583291" />
<trkpt lat="45.437410" lon="-72.583697" />
<trkpt lat="45.437284" lon="-72.584268" />
<trkpt lat="45.437248" lon="-72.584320" />
<trkpt lat="45.437150" lon="-72.584345" />
<trkpt lat="45.436732" lon="-72.584147" />
<trkpt lat="45.436319" lon="-72.583718" />
<trkpt lat="45.436246" lon="-72.583551" />
<trkpt lat="45.436163" lon="-72.583015" />
<trkpt lat="45.436118" lon="-72.582814" />
<trkpt lat="45.436042" lon="-72.582597" />
<trkpt lat="45.436027" lon="-72.582449" />
<trkpt lat="45.436110" lon="-72.582039" />
<trkpt lat="45.436131" lon="-72.581762" />
<trkpt lat="45.435962" lon="-72.580599" />
<trkpt lat="45.435973" lon="-72.580404" />
<trkpt lat="45.436134" lon="-72.580148" />
<trkpt lat="45.437260" lon="-72.580109" />
<trkpt lat="45.437508" lon="-72.580101" />
<trkpt lat="45.437937" lon="-72.580096" />
<trkpt lat="45.422251" lon="-72.580081" />
<trkpt lat="45.422634" lon="-72.579685" />
<trkpt lat="45.422694" lon="-72.579579" />
<trkpt lat="45.422721" lon="-72.579444" />
<trkpt lat="45.422720" lon="-72.579231" />
<trkpt lat="45.422743" lon="-72.579074" />
<trkpt lat="45.422786" lon="-72.578947" />
<trkpt lat="45.422862" lon="-72.578790" />
<trkpt lat="45.422903" lon="-72.578647" />
<trkpt lat="45.422916" lon="-72.578464" />
<trkpt lat="45.422921" lon="-72.578263" />
<trkpt lat="45.423004" lon="-72.577748" />
<trkpt lat="45.423028" lon="-72.577500" />
<trkpt lat="45.423080" lon="-72.577176" />
<trkpt lat="45.423164" lon="-72.576841" />
<trkpt lat="45.423290" lon="-72.576560" />
<trkpt lat="45.423373" lon="-72.576439" />
<trkpt lat="45.423572" lon="-72.576232" />
<trkpt lat="45.423622" lon="-72.576154" />
<trkpt lat="45.423670" lon="-72.576012" />
<trkpt lat="45.423753" lon="-72.575654" />
<trkpt lat="45.423755" lon="-72.575528" />
<trkpt lat="45.423727" lon="-72.575367" />
<trkpt lat="45.423619" lon="-72.575125" />
<trkpt lat="45.423479" lon="-72.574842" />
<trkpt lat="45.423375" lon="-72.574549" />
<trkpt lat="45.423353" lon="-72.574335" />
<trkpt lat="45.423380" lon="-72.573925" />
<trkpt lat="45.423370" lon="-72.573368" />
<trkpt lat="45.423378" lon="-72.572343" />
<trkpt lat="45.423353" lon="-72.572020" />
<trkpt lat="45.423356" lon="-72.571848" />
<trkpt lat="45.423388" lon="-72.571716" />
<trkpt lat="45.423559" lon="-72.571160" />
<trkpt lat="45.423579" lon="-72.571044" />
<trkpt lat="45.423610" lon="-72.570663" />
<trkpt lat="45.423605" lon="-72.570489" />
<trkpt lat="45.423571" lon="-72.570188" />
<trkpt lat="45.423508" lon="-72.569895" />
<trkpt lat="45.423407" lon="-72.569504" />
<trkpt lat="45.423363" lon="-72.569389" />
<trkpt lat="45.423345" lon="-72.569214" />
<trkpt lat="45.423367" lon="-72.568988" />
<trkpt lat="45.423381" lon="-72.568678" />
<trkpt lat="45.423377" lon="-72.568502" />
<trkpt lat="45.423477" lon="-72.567969" />
<trkpt lat="45.423502" lon="-72.567704" />
<trkpt lat="45.423505" lon="-72.567520" />
<trkpt lat="45.423486" lon="-72.567261" />
<trkpt lat="45.423430" lon="-72.566993" />
<trkpt lat="45.423367" lon="-72.566841" />
<trkpt lat="45.422940" lon="-72.565960" />
<trkpt lat="45.422834" lon="-72.565649" />
<trkpt lat="45.422744" lon="-72.565432" />
<trkpt lat="45.422331" lon="-72.564724" />
<trkpt lat="45.422192" lon="-72.564347" />
<trkpt lat="45.422129" lon="-72.564084" />
<trkpt lat="45.421964" lon="-72.563559" />
<trkpt lat="45.421834" lon="-72.563219" />
<trkpt lat="45.421663" lon="-72.562812" />
<trkpt lat="45.421520" lon="-72.562561" />
<trkpt lat="45.421322" lon="-72.562169" />
<trkpt lat="45.421268" lon="-72.562007" />
<trkpt lat="45.421246" lon="-72.561768" />
<trkpt lat="45.421235" lon="-72.561327" />
<trkpt lat="45.421208" lon="-72.561021" />
<trkpt lat="45.421057" lon="-72.560170" />
<trkpt lat="45.421015" lon="-72.559867" />
<trkpt lat="45.421029" lon="-72.559742" />
<trkpt lat="45.421070" lon="-72.559624" />
<trkpt lat="45.421160" lon="-72.559453" />
<trkpt lat="45.421206" lon="-72.559315" />
<trkpt lat="45.421209" lon="-72.559070" />
<trkpt lat="45.421129" lon="-72.558373" />
<trkpt lat="45.421137" lon="-72.558220" />
<trkpt lat="45.421267" lon="-72.557778" />
<trkpt lat="45.421290" lon="-72.557637" />
<trkpt lat="45.421302" lon="-72.557456" />
<trkpt lat="45.421291" lon="-72.557281" />
<trkpt lat="45.421117" lon="-72.556546" />
<trkpt lat="45.421072" lon="-72.556054" />
<trkpt lat="45.421055" lon="-72.555746" />
<trkpt lat="45.421011" lon="-72.555523" />
<trkpt lat="45.420902" lon="-72.555316" />
<trkpt lat="45.420571" lon="-72.554837" />
<trkpt lat="45.420430" lon="-72.554731" />
<trkpt lat="45.420305" lon="-72.554695" />
<trkpt lat="45.420138" lon="-72.554694" />
<trkpt lat="45.419968" lon="-72.554635" />
<trkpt lat="45.419815" lon="-72.554592" />
<trkpt lat="45.419690" lon="-72.554497" />
<trkpt lat="45.419474" lon="-72.554244" />
<trkpt lat="45.419341" lon="-72.554149" />
<trkpt lat="45.419266" lon="-72.554116" />
<trkpt lat="45.419160" lon="-72.554023" />
<trkpt lat="45.419070" lon="-72.553894" />
<trkpt lat="45.418859" lon="-72.553506" />
<trkpt lat="45.418720" lon="-72.553330" />
<trkpt lat="45.418569" lon="-72.553180" />
<trkpt lat="45.418495" lon="-72.553043" />
<trkpt lat="45.418456" lon="-72.552898" />
<trkpt lat="45.418462" lon="-72.552727" />
<trkpt lat="45.418489" lon="-72.552640" />
<trkpt lat="45.418563" lon="-72.552532" />
<trkpt lat="45.418780" lon="-72.552409" />
<trkpt lat="45.418821" lon="-72.552363" />
<trkpt lat="45.418820" lon="-72.552301" />
<trkpt lat="45.418798" lon="-72.552203" />
<trkpt lat="45.418690" lon="-72.551917" />
<trkpt lat="45.418668" lon="-72.551745" />
<trkpt lat="45.418701" lon="-72.551329" />
<trkpt lat="45.418739" lon="-72.551129" />
<trkpt lat="45.418781" lon="-72.550985" />
<trkpt lat="45.418834" lon="-72.550852" />
<trkpt lat="45.418945" lon="-72.550748" />
<trkpt lat="45.419024" lon="-72.550702" />
<trkpt lat="45.419115" lon="-72.550701" />
<trkpt lat="45.419271" lon="-72.550803" />
<trkpt lat="45.419360" lon="-72.550849" />
<trkpt lat="45.419475" lon="-72.550864" />
<trkpt lat="45.419365" lon="-72.550022" />
<trkpt lat="45.419318" lon="-72.549371" />
<trkpt lat="45.419255" lon="-72.548638" />
<trkpt lat="45.419111" lon="-72.547481" />
<trkpt lat="45.419019" lon="-72.546524" />
<trkpt lat="45.418914" lon="-72.545652" />
<trkpt lat="45.418892" lon="-72.545343" />
<trkpt lat="45.418840" lon="-72.544872" />
<trkpt lat="45.418612" lon="-72.543661" />
<trkpt lat="45.418550" lon="-72.543399" />
<trkpt lat="45.418470" lon="-72.543126" />
<trkpt lat="45.418234" lon="-72.542412" />
<trkpt lat="45.418182" lon="-72.542257" />
<trkpt lat="45.418087" lon="-72.542006" />
<trkpt lat="45.417342" lon="-72.540057" />
<trkpt lat="45.417235" lon="-72.539727" />
<trkpt lat="45.416437" lon="-72.537566" />
<trkpt lat="45.416251" lon="-72.537100" />
<trkpt lat="45.416062" lon="-72.536690" />
<trkpt lat="45.415807" lon="-72.536180" />
<trkpt lat="45.415544" lon="-72.535678" />
<trkpt lat="45.415322" lon="-72.535283" />
<trkpt lat="45.414936" lon="-72.534660" />
<trkpt lat="45.414040" lon="-72.533282" />
<trkpt lat="45.413330" lon="-72.532122" />
<trkpt lat="45.411616" lon="-72.529378" />
<trkpt lat="45.411053" lon="-72.528566" />
<trkpt lat="45.410879" lon="-72.528330" />
<trkpt lat="45.410599" lon="-72.528007" />
<trkpt lat="45.410480" lon="-72.527862" />
<trkpt lat="45.410363" lon="-72.527745" />
<trkpt lat="45.409925" lon="-72.527346" />
<trkpt lat="45.409356" lon="-72.526922" />
<trkpt lat="45.409267" lon="-72.526856" />
<trkpt lat="45.408939" lon="-72.526592" />
<trkpt lat="45.408460" lon="-72.526224" />
<trkpt lat="45.408150" lon="-72.526009" />
<trkpt lat="45.407418" lon="-72.525523" />
<trkpt lat="45.406848" lon="-72.525089" />
<trkpt lat="45.406557" lon="-72.524845" />
<trkpt lat="45.406355" lon="-72.524654" />
<trkpt lat="45.406133" lon="-72.524410" />
<trkpt lat="45.405815" lon="-72.523970" />
<trkpt lat="45.405523" lon="-72.523483" />
<trkpt lat="45.405338" lon="-72.523101" />
<trkpt lat="45.405141" lon="-72.522587" />
<trkpt lat="45.405014" lon="-72.522142" />
<trkpt lat="45.404892" lon="-72.521633" />
<trkpt lat="45.404564" lon="-72.519682" />
<trkpt lat="45.404367" lon="-72.518637" />
<trkpt lat="45.404097" lon="-72.517434" />
<trkpt lat="45.403970" lon="-72.516962" />
<trkpt lat="45.403811" lon="-72.516459" />
<trkpt lat="45.403609" lon="-72.515987" />
<trkpt lat="45.403419" lon="-72.515626" />
<trkpt lat="45.403244" lon="-72.515319" />
<trkpt lat="45.403053" lon="-72.515017" />
<trkpt lat="45.401213" lon="-72.512245" />
<trkpt lat="45.401066" lon="-72.512041" />
<trkpt lat="45.400879" lon="-72.511865" />
<trkpt lat="45.400814" lon="-72.511798" />
<trkpt lat="45.400625" lon="-72.511525" />
<trkpt lat="45.400579" lon="-72.511466" />
<trkpt lat="45.400545" lon="-72.511388" />
<trkpt lat="45.400540" lon="-72.511351" />
<trkpt lat="45.400543" lon="-72.511228" />
<trkpt lat="45.400547" lon="-72.511151" />
<trkpt lat="45.400538" lon="-72.511088" />
<trkpt lat="45.400514" lon="-72.511032" />
<trkpt lat="45.400475" lon="-72.510973" />
<trkpt lat="45.400427" lon="-72.510925" />
<trkpt lat="45.400277" lon="-72.510775" />
<trkpt lat="45.400184" lon="-72.510671" />
<trkpt lat="45.399938" lon="-72.510313" />
<trkpt lat="45.399185" lon="-72.509181" />
<trkpt lat="45.398588" lon="-72.508275" />
<trkpt lat="45.398364" lon="-72.507910" />
<trkpt lat="45.398190" lon="-72.507612" />
<trkpt lat="45.398013" lon="-72.507280" />
<trkpt lat="45.397796" lon="-72.506843" />
<trkpt lat="45.397591" lon="-72.506409" />
<trkpt lat="45.397436" lon="-72.506063" />
<trkpt lat="45.397294" lon="-72.505712" />
<trkpt lat="45.397180" lon="-72.505447" />
<trkpt lat="45.397018" lon="-72.504991" />
<trkpt lat="45.396795" lon="-72.504324" />
<trkpt lat="45.396649" lon="-72.503829" />
<trkpt lat="45.396055" lon="-72.501603" />
<trkpt lat="45.395960" lon="-72.501266" />
<trkpt lat="45.395895" lon="-72.501076" />
<trkpt lat="45.395789" lon="-72.500802" />
<trkpt lat="45.395686" lon="-72.500563" />
<trkpt lat="45.395442" lon="-72.500121" />
<trkpt lat="45.395314" lon="-72.499944" />
<trkpt lat="45.395048" lon="-72.499637" />
<trkpt lat="45.394907" lon="-72.499499" />
<trkpt lat="45.394609" lon="-72.499266" />
<trkpt lat="45.394449" lon="-72.499173" />
<trkpt lat="45.394264" lon="-72.499092" />
<trkpt lat="45.394109" lon="-72.499046" />
<trkpt lat="45.393708" lon="-72.498975" />
<trkpt lat="45.393553" lon="-72.498967" />
<trkpt lat="45.393395" lon="-72.498978" />
<trkpt lat="45.393170" lon="-72.499023" />
<trkpt lat="45.392759" lon="-72.499137" />
<trkpt lat="45.391790" lon="-72.499510" />
<trkpt lat="45.389517" lon="-72.500399" />
<trkpt lat="45.388776" lon="-72.500744" />
<trkpt lat="45.388709" lon="-72.500774" />
<trkpt lat="45.388602" lon="-72.500803" />
<trkpt lat="45.388352" lon="-72.500843" />
<trkpt lat="45.388288" lon="-72.500867" />
<trkpt lat="45.388239" lon="-72.500925" />
<trkpt lat="45.388208" lon="-72.500974" />
<trkpt lat="45.388185" lon="-72.501014" />
<trkpt lat="45.388130" lon="-72.501057" />
<trkpt lat="45.387989" lon="-72.501131" />
<trkpt lat="45.387136" lon="-72.501528" />
<trkpt lat="45.386512" lon="-72.501800" />
<trkpt lat="45.385333" lon="-72.502355" />
<trkpt lat="45.384790" lon="-72.502627" />
<trkpt lat="45.384447" lon="-72.502813" />
<trkpt lat="45.384018" lon="-72.503072" />
<trkpt lat="45.382326" lon="-72.504230" />
<trkpt lat="45.381458" lon="-72.504858" />
<trkpt lat="45.381001" lon="-72.505144" />
<trkpt lat="45.380864" lon="-72.505234" />
<trkpt lat="45.380196" lon="-72.505770" />
<trkpt lat="45.379911" lon="-72.506039" />
<trkpt lat="45.379758" lon="-72.506207" />
<trkpt lat="45.379563" lon="-72.506438" />
<trkpt lat="45.379454" lon="-72.506578" />
<trkpt lat="45.379247" lon="-72.506855" />
<trkpt lat="45.379086" lon="-72.507101" />
<trkpt lat="45.378882" lon="-72.507453" />
<trkpt lat="45.378288" lon="-72.508636" />
<trkpt lat="45.378121" lon="-72.508937" />
<trkpt lat="45.377891" lon="-72.509315" />
<trkpt lat="45.377700" lon="-72.509587" />
<trkpt lat="45.377431" lon="-72.509897" />
<trkpt lat="45.377144" lon="-72.510188" />
<trkpt lat="45.376923" lon="-72.510371" />
<trkpt lat="45.376595" lon="-72.510603" />
<trkpt lat="45.376273" lon="-72.510783" />
<trkpt lat="45.375995" lon="-72.510889" />
<trkpt lat="45.375659" lon="-72.510983" />
<trkpt lat="45.375411" lon="-72.511028" />
<trkpt lat="45.375118" lon="-72.511061" />
<trkpt lat="45.374950" lon="-72.511071" />
<trkpt lat="45.373509" lon="-72.511130" />
<trkpt lat="45.372143" lon="-72.511191" />
<trkpt lat="45.370308" lon="-72.511252" />
<trkpt lat="45.370109" lon="-72.511259" />
<trkpt lat="45.367385" lon="-72.511373" />
<trkpt lat="45.363495" lon="-72.511515" />
<trkpt lat="45.362197" lon="-72.511574" />
<trkpt lat="45.362160" lon="-72.511582" />
<trkpt lat="45.362010" lon="-72.511677" />
<trkpt lat="45.361950" lon="-72.511707" />
<trkpt lat="45.361901" lon="-72.511716" />
<trkpt lat="45.361835" lon="-72.511707" />
<trkpt lat="45.361759" lon="-72.511633" />
<trkpt lat="45.361707" lon="-72.511574" />
<trkpt lat="45.361671" lon="-72.511550" />
<trkpt lat="45.361640" lon="-72.511550" />
<trkpt lat="45.361462" lon="-72.511593" />
<trkpt lat="45.360132" lon="-72.511696" />
<trkpt lat="45.359217" lon="-72.511803" />
<trkpt lat="45.358561" lon="-72.511868" />
<trkpt lat="45.357794" lon="-72.511922" />
<trkpt lat="45.357323" lon="-72.511936" />
<trkpt lat="45.356926" lon="-72.511919" />
<trkpt lat="45.355090" lon="-72.511769" />
<trkpt lat="45.354619" lon="-72.511742" />
<trkpt lat="45.354259" lon="-72.511749" />
<trkpt lat="45.353981" lon="-72.511780" />
<trkpt lat="45.353594" lon="-72.511861" />
<trkpt lat="45.353272" lon="-72.511942" />
<trkpt lat="45.352939" lon="-72.512082" />
<trkpt lat="45.352651" lon="-72.512234" />
<trkpt lat="45.352223" lon="-72.512512" />
<trkpt lat="45.351256" lon="-72.513171" />
<trkpt lat="45.351074" lon="-72.513281" />
<trkpt lat="45.350803" lon="-72.513417" />
<trkpt lat="45.350290" lon="-72.513631" />
<trkpt lat="45.350296" lon="-72.513859" />
<trkpt lat="45.350321" lon="-72.514261" />
<trkpt lat="45.350325" lon="-72.514314" />
<trkpt lat="45.350427" lon="-72.515267" />
<trkpt lat="45.350434" lon="-72.515330" />
<trkpt lat="45.350445" lon="-72.515437" />
<trkpt lat="45.350280" lon="-72.515508" />
<trkpt lat="45.350095" lon="-72.515573" />
<trkpt lat="45.350015" lon="-72.515601" />
<trkpt lat="45.349962" lon="-72.515620" />
<trkpt lat="45.349801" lon="-72.515678" />
<trkpt lat="45.349751" lon="-72.515695" />
<trkpt lat="45.349722" lon="-72.515706" />
<trkpt lat="45.349634" lon="-72.515737" />
<trkpt lat="45.349386" lon="-72.515826" />
<trkpt lat="45.349253" lon="-72.515874" />
<trkpt lat="45.348876" lon="-72.516009" />
<trkpt lat="45.348854" lon="-72.516017" />
<trkpt lat="45.348672" lon="-72.516084" />
<trkpt lat="45.348496" lon="-72.516146" />
<trkpt lat="45.348398" lon="-72.516181" />
<trkpt lat="45.347984" lon="-72.516329" />
<trkpt lat="45.347869" lon="-72.516370" />
<trkpt lat="45.347819" lon="-72.516388" />
<trkpt lat="45.347628" lon="-72.516457" />
<trkpt lat="45.347477" lon="-72.516511" />
<trkpt lat="45.347363" lon="-72.516552" />
<trkpt lat="45.347260" lon="-72.516589" />
<trkpt lat="45.347223" lon="-72.516601" />
<trkpt lat="45.346980" lon="-72.516690" />
<trkpt lat="45.346949" lon="-72.516593" />
<trkpt lat="45.346877" lon="-72.516480" />
<trkpt lat="45.346826" lon="-72.516427" />
<trkpt lat="45.346710" lon="-72.516346" />
<trkpt lat="45.346573" lon="-72.516254" />
<trkpt lat="45.346532" lon="-72.516226" />
<trkpt lat="45.346454" lon="-72.516174" />
<trkpt lat="45.346364" lon="-72.516113" />
<trkpt lat="45.346203" lon="-72.516005" />
<trkpt lat="45.346156" lon="-72.515973" />
<trkpt lat="45.346122" lon="-72.515951" />
<trkpt lat="45.346033" lon="-72.515891" />
<trkpt lat="45.345933" lon="-72.515824" />
<trkpt lat="45.345911" lon="-72.515808" />
<trkpt lat="45.345479" lon="-72.515518" />
<trkpt lat="45.345226" lon="-72.515347" />
<trkpt lat="45.345111" lon="-72.515270" />
<trkpt lat="45.345002" lon="-72.515197" />
<trkpt lat="45.344882" lon="-72.515116" />
<trkpt lat="45.344794" lon="-72.515056" />
<trkpt lat="45.344609" lon="-72.514929" />
<trkpt lat="45.344387" lon="-72.514778" />
<trkpt lat="45.343354" lon="-72.514092" />
<trkpt lat="45.342649" lon="-72.513616" />
<trkpt lat="45.342601" lon="-72.513663" />
<trkpt lat="45.342302" lon="-72.513694" />
<trkpt lat="45.341123" lon="-72.513770" />
<trkpt lat="45.339353" lon="-72.513861" />
<trkpt lat="45.339056" lon="-72.513873" />
<trkpt lat="45.338992" lon="-72.513868" />
<trkpt lat="45.338894" lon="-72.513854" />
<trkpt lat="45.338820" lon="-72.513836" />
<trkpt lat="45.338787" lon="-72.513829" />
<trkpt lat="45.338666" lon="-72.513692" />
<trkpt lat="45.338631" lon="-72.513684" />
<trkpt lat="45.338514" lon="-72.513690" />
<trkpt lat="45.338460" lon="-72.513674" />
<trkpt lat="45.338423" lon="-72.513643" />
<trkpt lat="45.338386" lon="-72.513581" />
<trkpt lat="45.338310" lon="-72.513360" />
<trkpt lat="45.338240" lon="-72.513356" />
<trkpt lat="45.338198" lon="-72.513374" />
<trkpt lat="45.338143" lon="-72.513397" />
<trkpt lat="45.338111" lon="-72.513414" />
<trkpt lat="45.338060" lon="-72.513440" />
<trkpt lat="45.338026" lon="-72.513442" />
<trkpt lat="45.338000" lon="-72.513428" />
<trkpt lat="45.337979" lon="-72.513393" />
<trkpt lat="45.337431" lon="-72.511176" />
<trkpt lat="45.336639" lon="-72.511549" />
<trkpt lat="45.336614" lon="-72.511508" />
<trkpt lat="45.334643" lon="-72.508575" />
<trkpt lat="45.334556" lon="-72.508457" />
<trkpt lat="45.334403" lon="-72.508278" />
<trkpt lat="45.334261" lon="-72.508124" />
<trkpt lat="45.334112" lon="-72.507984" />
<trkpt lat="45.333957" lon="-72.507859" />
<trkpt lat="45.333797" lon="-72.507750" />
<trkpt lat="45.333631" lon="-72.507655" />
<trkpt lat="45.333462" lon="-72.507577" />
<trkpt lat="45.333289" lon="-72.507516" />
<trkpt lat="45.333114" lon="-72.507471" />
<trkpt lat="45.332936" lon="-72.507443" />
<trkpt lat="45.332776" lon="-72.507430" />
<trkpt lat="45.331626" lon="-72.507400" />
<trkpt lat="45.331579" lon="-72.507401" />
<trkpt lat="45.331496" lon="-72.507400" />
<trkpt lat="45.330025" lon="-72.507358" />
<trkpt lat="45.329573" lon="-72.507325" />
<trkpt lat="45.329207" lon="-72.507288" />
<trkpt lat="45.329152" lon="-72.507280" />
<trkpt lat="45.329079" lon="-72.507261" />
<trkpt lat="45.328850" lon="-72.507197" />
<trkpt lat="45.328633" lon="-72.507108" />
<trkpt lat="45.328432" lon="-72.506992" />
<trkpt lat="45.328173" lon="-72.506826" />
<trkpt lat="45.327930" lon="-72.506634" />
<trkpt lat="45.327201" lon="-72.505902" />
<trkpt lat="45.327133" lon="-72.505834" />
<trkpt lat="45.327047" lon="-72.505747" />
<trkpt lat="45.325738" lon="-72.504427" />
<trkpt lat="45.325568" lon="-72.504263" />
<trkpt lat="45.325345" lon="-72.504052" />
<trkpt lat="45.325140" lon="-72.503885" />
<trkpt lat="45.324972" lon="-72.503763" />
<trkpt lat="45.324727" lon="-72.503614" />
<trkpt lat="45.324503" lon="-72.503500" />
<trkpt lat="45.324255" lon="-72.503403" />
<trkpt lat="45.324026" lon="-72.503335" />
<trkpt lat="45.323806" lon="-72.503288" />
<trkpt lat="45.322192" lon="-72.503067" />
<trkpt lat="45.322024" lon="-72.503048" />
<trkpt lat="45.318351" lon="-72.502519" />
<trkpt lat="45.316755" lon="-72.502311" />
<trkpt lat="45.316534" lon="-72.502258" />
<trkpt lat="45.316316" lon="-72.502185" />
<trkpt lat="45.316102" lon="-72.502090" />
<trkpt lat="45.315893" lon="-72.501976" />
<trkpt lat="45.315690" lon="-72.501842" />
<trkpt lat="45.313824" lon="-72.500409" />
<trkpt lat="45.313708" lon="-72.500342" />
<trkpt lat="45.313585" lon="-72.500296" />
<trkpt lat="45.312924" lon="-72.500096" />
<trkpt lat="45.312860" lon="-72.500044" />
<trkpt lat="45.312818" lon="-72.499987" />
<trkpt lat="45.312804" lon="-72.499942" />
<trkpt lat="45.312800" lon="-72.499867" />
<trkpt lat="45.312804" lon="-72.499788" />
<trkpt lat="45.312819" lon="-72.499717" />
<trkpt lat="45.312834" lon="-72.499635" />
<trkpt lat="45.312842" lon="-72.499539" />
<trkpt lat="45.312828" lon="-72.499487" />
<trkpt lat="45.312801" lon="-72.499451" />
<trkpt lat="45.312748" lon="-72.499418" />
<trkpt lat="45.312426" lon="-72.499264" />
<trkpt lat="45.312011" lon="-72.499051" />
<trkpt lat="45.311828" lon="-72.498981" />
<trkpt lat="45.311607" lon="-72.498903" />
<trkpt lat="45.311406" lon="-72.498847" />
<trkpt lat="45.311234" lon="-72.498817" />
<trkpt lat="45.311150" lon="-72.498810" />
<trkpt lat="45.310728" lon="-72.498826" />
<trkpt lat="45.310540" lon="-72.498868" />
<trkpt lat="45.310429" lon="-72.498882" />
<trkpt lat="45.310125" lon="-72.498890" />
<trkpt lat="45.308862" lon="-72.499024" />
<trkpt lat="45.308802" lon="-72.499032" />
<trkpt lat="45.308766" lon="-72.499036" />
<trkpt lat="45.308732" lon="-72.499039" />
<trkpt lat="45.308697" lon="-72.499040" />
<trkpt lat="45.308287" lon="-72.499030" />
<trkpt lat="45.308062" lon="-72.498994" />
<trkpt lat="45.307816" lon="-72.498933" />
<trkpt lat="45.307606" lon="-72.498869" />
<trkpt lat="45.305848" lon="-72.498151" />
<trkpt lat="45.303524" lon="-72.497226" />
<trkpt lat="45.303189" lon="-72.497100" />
<trkpt lat="45.302901" lon="-72.497005" />
<trkpt lat="45.302609" lon="-72.496941" />
<trkpt lat="45.302315" lon="-72.496909" />
<trkpt lat="45.302019" lon="-72.496907" />
<trkpt lat="45.301721" lon="-72.496920" />
<trkpt lat="45.300119" lon="-72.497063" />
<trkpt lat="45.297295" lon="-72.497369" />
<trkpt lat="45.294208" lon="-72.497630" />
<trkpt lat="45.293939" lon="-72.497634" />
<trkpt lat="45.293778" lon="-72.497627" />
<trkpt lat="45.293602" lon="-72.497608" />
<trkpt lat="45.293323" lon="-72.497556" />
<trkpt lat="45.293222" lon="-72.497517" />
<trkpt lat="45.293064" lon="-72.497468" />
<trkpt lat="45.292588" lon="-72.497257" />
<trkpt lat="45.292192" lon="-72.497003" />
<trkpt lat="45.291290" lon="-72.496235" />
<trkpt lat="45.290790" lon="-72.495795" />
<trkpt lat="45.290356" lon="-72.495413" />
<trkpt lat="45.289856" lon="-72.494989" />
<trkpt lat="45.289261" lon="-72.494471" />
<trkpt lat="45.289190" lon="-72.494410" />
<trkpt lat="45.288966" lon="-72.494215" />
<trkpt lat="45.288585" lon="-72.493900" />
<trkpt lat="45.288096" lon="-72.493451" />
<trkpt lat="45.287674" lon="-72.493011" />
<trkpt lat="45.287227" lon="-72.492565" />
<trkpt lat="45.287192" lon="-72.492500" />
<trkpt lat="45.287106" lon="-72.492465" />
<trkpt lat="45.287017" lon="-72.492409" />
<trkpt lat="45.286932" lon="-72.492336" />
<trkpt lat="45.286514" lon="-72.491877" />
<trkpt lat="45.286509" lon="-72.492037" />
<trkpt lat="45.286470" lon="-72.492066" />
<trkpt lat="45.286398" lon="-72.492046" />
<trkpt lat="45.286141" lon="-72.491839" />
<trkpt lat="45.285785" lon="-72.491527" />
<trkpt lat="45.285728" lon="-72.491433" />
<trkpt lat="45.285653" lon="-72.491274" />
<trkpt lat="45.285563" lon="-72.491171" />
<trkpt lat="45.285479" lon="-72.491100" />
<trkpt lat="45.284762" lon="-72.490617" />
<trkpt lat="45.284425" lon="-72.490376" />
<trkpt lat="45.283767" lon="-72.490005" />
<trkpt lat="45.283346" lon="-72.489869" />
<trkpt lat="45.283013" lon="-72.489791" />
<trkpt lat="45.278216" lon="-72.489182" />
<trkpt lat="45.276705" lon="-72.488995" />
<trkpt lat="45.276540" lon="-72.488975" />
<trkpt lat="45.276160" lon="-72.488925" />
<trkpt lat="45.275477" lon="-72.488845" />
<trkpt lat="45.270319" lon="-72.488270" />
<trkpt lat="45.265178" lon="-72.487600" />
<trkpt lat="45.262153" lon="-72.487231" />
<trkpt lat="45.260832" lon="-72.487056" />
<trkpt lat="45.258674" lon="-72.486811" />
<trkpt lat="45.258597" lon="-72.486785" />
<trkpt lat="45.258483" lon="-72.486729" />
<trkpt lat="45.258421" lon="-72.486723" />
<trkpt lat="45.258291" lon="-72.486775" />
<trkpt lat="45.258247" lon="-72.486784" />
<trkpt lat="45.253691" lon="-72.486216" />
<trkpt lat="45.252337" lon="-72.486033" />
<trkpt lat="45.252145" lon="-72.486026" />
<trkpt lat="45.251578" lon="-72.485956" />
<trkpt lat="45.251388" lon="-72.485912" />
<trkpt lat="45.251246" lon="-72.485880" />
<trkpt lat="45.250681" lon="-72.485783" />
<trkpt lat="45.250019" lon="-72.485712" />
<trkpt lat="45.248725" lon="-72.485570" />
<trkpt lat="45.246269" lon="-72.485292" />
<trkpt lat="45.246042" lon="-72.485278" />
<trkpt lat="45.245624" lon="-72.485301" />
<trkpt lat="45.245210" lon="-72.485364" />
<trkpt lat="45.244778" lon="-72.485473" />
<trkpt lat="45.244482" lon="-72.485603" />
<trkpt lat="45.243640" lon="-72.486122" />
<trkpt lat="45.243283" lon="-72.486374" />
<trkpt lat="45.242862" lon="-72.486770" />
<trkpt lat="45.242627" lon="-72.487009" />
<trkpt lat="45.242464" lon="-72.487187" />
<trkpt lat="45.242422" lon="-72.487294" />
<trkpt lat="45.242378" lon="-72.487379" />
<trkpt lat="45.241887" lon="-72.488061" />
<trkpt lat="45.241101" lon="-72.489136" />
<trkpt lat="45.240186" lon="-72.490502" />
<trkpt lat="45.239936" lon="-72.490799" />
<trkpt lat="45.239636" lon="-72.491062" />
<trkpt lat="45.237333" lon="-72.492442" />
<trkpt lat="45.235360" lon="-72.493849" />
<trkpt lat="45.235039" lon="-72.494095" />
<trkpt lat="45.233987" lon="-72.494902" />
<trkpt lat="45.233648" lon="-72.495165" />
<trkpt lat="45.232330" lon="-72.496158" />
<trkpt lat="45.231836" lon="-72.496487" />
<trkpt lat="45.231142" lon="-72.496889" />
<trkpt lat="45.229754" lon="-72.497614" />
<trkpt lat="45.229188" lon="-72.497953" />
<trkpt lat="45.228904" lon="-72.498213" />
<trkpt lat="45.228744" lon="-72.498404" />
<trkpt lat="45.228432" lon="-72.498865" />
<trkpt lat="45.228373" lon="-72.498945" />
<trkpt lat="45.226655" lon="-72.501501" />
<trkpt lat="45.226077" lon="-72.502316" />
<trkpt lat="45.225889" lon="-72.502638" />
<trkpt lat="45.225779" lon="-72.502892" />
<trkpt lat="45.225754" lon="-72.502970" />
<trkpt lat="45.225755" lon="-72.503021" />
<trkpt lat="45.225793" lon="-72.503178" />
<trkpt lat="45.225801" lon="-72.503269" />
<trkpt lat="45.225792" lon="-72.503361" />
<trkpt lat="45.225668" lon="-72.503710" />
<trkpt lat="45.225453" lon="-72.504398" />
<trkpt lat="45.225417" lon="-72.504676" />
<trkpt lat="45.225397" lon="-72.505102" />
<trkpt lat="45.225402" lon="-72.505487" />
<trkpt lat="45.225462" lon="-72.506004" />
<trkpt lat="45.225472" lon="-72.506189" />
<trkpt lat="45.225596" lon="-72.508511" />
<trkpt lat="45.225585" lon="-72.509265" />
<trkpt lat="45.225456" lon="-72.510467" />
<trkpt lat="45.225353" lon="-72.510943" />
<trkpt lat="45.225173" lon="-72.511461" />
<trkpt lat="45.225005" lon="-72.511892" />
<trkpt lat="45.224624" lon="-72.512598" />
<trkpt lat="45.224230" lon="-72.513213" />
<trkpt lat="45.224174" lon="-72.513301" />
<trkpt lat="45.224100" lon="-72.513418" />
<trkpt lat="45.222003" lon="-72.516608" />
<trkpt lat="45.221928" lon="-72.516725" />
<trkpt lat="45.221909" lon="-72.516753" />
<trkpt lat="45.221914" lon="-72.516832" />
<trkpt lat="45.221922" lon="-72.516935" />
<trkpt lat="45.221886" lon="-72.516944" />
<trkpt lat="45.221966" lon="-72.518686" />
<trkpt lat="45.222014" lon="-72.518965" />
<trkpt lat="45.222100" lon="-72.519262" />
<trkpt lat="45.222404" lon="-72.520035" />
<trkpt lat="45.222498" lon="-72.520318" />
<trkpt lat="45.222669" lon="-72.520935" />
<trkpt lat="45.222750" lon="-72.521371" />
<trkpt lat="45.222784" lon="-72.521735" />
<trkpt lat="45.222798" lon="-72.522090" />
<trkpt lat="45.222796" lon="-72.522464" />
<trkpt lat="45.222773" lon="-72.522826" />
<trkpt lat="45.222726" lon="-72.523049" />
<trkpt lat="45.222669" lon="-72.523198" />
<trkpt lat="45.222590" lon="-72.523349" />
<trkpt lat="45.222477" lon="-72.523503" />
<trkpt lat="45.221923" lon="-72.524119" />
<trkpt lat="45.221763" lon="-72.524286" />
<trkpt lat="45.221562" lon="-72.524483" />
<trkpt lat="45.220932" lon="-72.525105" />
<trkpt lat="45.220343" lon="-72.525745" />
<trkpt lat="45.219638" lon="-72.526560" />
<trkpt lat="45.219534" lon="-72.526692" />
<trkpt lat="45.219044" lon="-72.527318" />
<trkpt lat="45.217844" lon="-72.528833" />
<trkpt lat="45.217135" lon="-72.529685" />
<trkpt lat="45.216897" lon="-72.529972" />
<trkpt lat="45.216843" lon="-72.530037" />
<trkpt lat="45.215440" lon="-72.531746" />
<trkpt lat="45.214317" lon="-72.533116" />
<trkpt lat="45.213623" lon="-72.533978" />
<trkpt lat="45.213573" lon="-72.534030" />
<trkpt lat="45.213532" lon="-72.534060" />
<trkpt lat="45.213500" lon="-72.534070" />
<trkpt lat="45.213456" lon="-72.534071" />
<trkpt lat="45.213337" lon="-72.534028" />
<trkpt lat="45.213269" lon="-72.534385" />
<trkpt lat="45.212965" lon="-72.536003" />
<trkpt lat="45.212625" lon="-72.537756" />
<trkpt lat="45.212421" lon="-72.538811" />
<trkpt lat="45.212319" lon="-72.539337" />
<trkpt lat="45.212560" lon="-72.539430" />
<trkpt lat="45.212621" lon="-72.539399" />
<trkpt lat="45.212856" lon="-72.539502" />
<trkpt lat="45.212621" lon="-72.539399" />
<trkpt lat="45.212560" lon="-72.539430" />
<trkpt lat="45.212319" lon="-72.539337" />
<trkpt lat="45.212421" lon="-72.538811" />
<trkpt lat="45.212625" lon="-72.537756" />
<trkpt lat="45.212965" lon="-72.536003" />
<trkpt lat="45.212740" lon="-72.535980" />
<trkpt lat="45.211561" lon="-72.535946" />
<trkpt lat="45.210907" lon="-72.535924" />
<trkpt lat="45.210121" lon="-72.535898" />
<trkpt lat="45.208432" lon="-72.535881" />
<trkpt lat="45.206398" lon="-72.535840" />
<trkpt lat="45.205694" lon="-72.535815" />
<trkpt lat="45.205086" lon="-72.535789" />
<trkpt lat="45.203400" lon="-72.535865" />
<trkpt lat="45.202797" lon="-72.535757" />
<trkpt lat="45.202712" lon="-72.535757" />
<trkpt lat="45.202506" lon="-72.535790" />
<trkpt lat="45.202255" lon="-72.535881" />
<trkpt lat="45.202118" lon="-72.535915" />
<trkpt lat="45.201920" lon="-72.535932" />
<trkpt lat="45.201830" lon="-72.535929" />
<trkpt lat="45.201415" lon="-72.535811" />
<trkpt lat="45.201095" lon="-72.535774" />
<trkpt lat="45.198953" lon="-72.535787" />
<trkpt lat="45.198819" lon="-72.535817" />
<trkpt lat="45.198709" lon="-72.535855" />
<trkpt lat="45.198529" lon="-72.535956" />
<trkpt lat="45.198470" lon="-72.536004" />
<trkpt lat="45.198341" lon="-72.536166" />
<trkpt lat="45.198002" lon="-72.536740" />
<trkpt lat="45.197914" lon="-72.536859" />
<trkpt lat="45.197828" lon="-72.536944" />
<trkpt lat="45.197718" lon="-72.537020" />
<trkpt lat="45.197625" lon="-72.537070" />
<trkpt lat="45.197440" lon="-72.537113" />
<trkpt lat="45.197342" lon="-72.537119" />
<trkpt lat="45.197224" lon="-72.537119" />
<trkpt lat="45.197111" lon="-72.537099" />
<trkpt lat="45.197016" lon="-72.537068" />
<trkpt lat="45.196823" lon="-72.536969" />
<trkpt lat="45.196619" lon="-72.536817" />
<trkpt lat="45.196134" lon="-72.536348" />
<trkpt lat="45.195868" lon="-72.536120" />
<trkpt lat="45.195749" lon="-72.536095" />
<trkpt lat="45.194233" lon="-72.536085" />
<trkpt lat="45.193743" lon="-72.536054" />
<trkpt lat="45.193436" lon="-72.536675" />
<trkpt lat="45.193253" lon="-72.537007" />
<trkpt lat="45.193184" lon="-72.537119" />
<trkpt lat="45.192127" lon="-72.538603" />
<trkpt lat="45.190769" lon="-72.540874" />
<trkpt lat="45.190545" lon="-72.541257" />
<trkpt lat="45.190491" lon="-72.541360" />
<trkpt lat="45.190454" lon="-72.541465" />
<trkpt lat="45.190384" lon="-72.541709" />
<trkpt lat="45.190291" lon="-72.542152" />
<trkpt lat="45.190158" lon="-72.543013" />
<trkpt lat="45.190051" lon="-72.543532" />
<trkpt lat="45.189974" lon="-72.543833" />
<trkpt lat="45.189861" lon="-72.544213" />
<trkpt lat="45.189508" lon="-72.545065" />
<trkpt lat="45.189220" lon="-72.545730" />
<trkpt lat="45.187865" lon="-72.548018" />
<trkpt lat="45.187869" lon="-72.551083" />
<trkpt lat="45.187844" lon="-72.552327" />
<trkpt lat="45.187809" lon="-72.553091" />
<trkpt lat="45.187739" lon="-72.553902" />
<trkpt lat="45.187646" lon="-72.555433" />
<trkpt lat="45.187581" lon="-72.556073" />
<trkpt lat="45.187564" lon="-72.556549" />
<trkpt lat="45.187567" lon="-72.557013" />
<trkpt lat="45.187573" lon="-72.557171" />
<trkpt lat="45.187599" lon="-72.557473" />
<trkpt lat="45.187645" lon="-72.557759" />
<trkpt lat="45.187738" lon="-72.558184" />
<trkpt lat="45.187829" lon="-72.558493" />
<trkpt lat="45.187991" lon="-72.559006" />
<trkpt lat="45.188790" lon="-72.561368" />
<trkpt lat="45.188625" lon="-72.561478" />
<trkpt lat="45.188440" lon="-72.561577" />
<trkpt lat="45.188047" lon="-72.561731" />
<trkpt lat="45.187855" lon="-72.561793" />
<trkpt lat="45.186929" lon="-72.562080" />
<trkpt lat="45.184975" lon="-72.562693" />
<trkpt lat="45.183194" lon="-72.563210" />
<trkpt lat="45.181102" lon="-72.563737" />
<trkpt lat="45.180634" lon="-72.563854" />
<trkpt lat="45.180052" lon="-72.563965" />
<trkpt lat="45.179846" lon="-72.563986" />
<trkpt lat="45.179155" lon="-72.564033" />
<trkpt lat="45.178607" lon="-72.564065" />
<trkpt lat="45.178213" lon="-72.564073" />
<trkpt lat="45.177596" lon="-72.564086" />
<trkpt lat="45.177280" lon="-72.564061" />
<trkpt lat="45.176594" lon="-72.563938" />
<trkpt lat="45.176181" lon="-72.563816" />
<trkpt lat="45.175478" lon="-72.563539" />
<trkpt lat="45.175347" lon="-72.563509" />
<trkpt lat="45.175108" lon="-72.563481" />
<trkpt lat="45.174964" lon="-72.563477" />
<trkpt lat="45.174760" lon="-72.563514" />
<trkpt lat="45.172279" lon="-72.564630" />
<trkpt lat="45.172092" lon="-72.564728" />
<trkpt lat="45.171521" lon="-72.565032" />
<trkpt lat="45.171326" lon="-72.565185" />
<trkpt lat="45.170981" lon="-72.565515" />
<trkpt lat="45.170770" lon="-72.565671" />
<trkpt lat="45.170604" lon="-72.565777" />
<trkpt lat="45.170207" lon="-72.565935" />
<trkpt lat="45.169962" lon="-72.566028" />
<trkpt lat="45.169875" lon="-72.566065" />
<trkpt lat="45.167984" lon="-72.566652" />
<trkpt lat="45.167068" lon="-72.566978" />
<trkpt lat="45.166840" lon="-72.567120" />
<trkpt lat="45.166712" lon="-72.567190" />
<trkpt lat="45.166602" lon="-72.567287" />
<trkpt lat="45.166190" lon="-72.567573" />
<trkpt lat="45.164987" lon="-72.568228" />
<trkpt lat="45.163518" lon="-72.569087" />
<trkpt lat="45.162378" lon="-72.569733" />
<trkpt lat="45.161440" lon="-72.570223" />
<trkpt lat="45.161148" lon="-72.570400" />
<trkpt lat="45.161048" lon="-72.570446" />
<trkpt lat="45.160603" lon="-72.570616" />
<trkpt lat="45.160158" lon="-72.570773" />
<trkpt lat="45.160013" lon="-72.570817" />
<trkpt lat="45.159770" lon="-72.570844" />
<trkpt lat="45.159608" lon="-72.570849" />
<trkpt lat="45.156566" lon="-72.570733" />
<trkpt lat="45.153621" lon="-72.570680" />
<trkpt lat="45.152719" lon="-72.570604" />
<trkpt lat="45.151332" lon="-72.570549" />
<trkpt lat="45.151035" lon="-72.570574" />
<trkpt lat="45.150775" lon="-72.570636" />
<trkpt lat="45.150642" lon="-72.570705" />
<trkpt lat="45.150537" lon="-72.570825" />
<trkpt lat="45.150358" lon="-72.571142" />
<trkpt lat="45.149369" lon="-72.573074" />
<trkpt lat="45.148669" lon="-72.574465" />
<trkpt lat="45.147094" lon="-72.577683" />
<trkpt lat="45.146902" lon="-72.578030" />
<trkpt lat="45.146814" lon="-72.578050" />
<trkpt lat="45.146064" lon="-72.578066" />
<trkpt lat="45.143115" lon="-72.578119" />
<trkpt lat="45.142087" lon="-72.578150" />
<trkpt lat="45.141766" lon="-72.578161" />
<trkpt lat="45.140933" lon="-72.578149" />
<trkpt lat="45.140709" lon="-72.578133" />
<trkpt lat="45.139960" lon="-72.578175" />
<trkpt lat="45.139335" lon="-72.578217" />
<trkpt lat="45.138855" lon="-72.578248" />
<trkpt lat="45.138407" lon="-72.578281" />
<trkpt lat="45.138130" lon="-72.578268" />
<trkpt lat="45.137714" lon="-72.578249" />
<trkpt lat="45.137525" lon="-72.578232" />
<trkpt lat="45.137428" lon="-72.578197" />
<trkpt lat="45.137301" lon="-72.578137" />
<trkpt lat="45.137157" lon="-72.578038" />
<trkpt lat="45.137074" lon="-72.577974" />
<trkpt lat="45.136963" lon="-72.577897" />
<trkpt lat="45.136806" lon="-72.577745" />
<trkpt lat="45.136739" lon="-72.577653" />
<trkpt lat="45.136581" lon="-72.577303" />
<trkpt lat="45.136516" lon="-72.577216" />
<trkpt lat="45.136319" lon="-72.577008" />
<trkpt lat="45.136083" lon="-72.576811" />
<trkpt lat="45.135806" lon="-72.576651" />
<trkpt lat="45.135600" lon="-72.576582" />
<trkpt lat="45.135505" lon="-72.576564" />
<trkpt lat="45.134643" lon="-72.576571" />
<trkpt lat="45.134474" lon="-72.576603" />
<trkpt lat="45.134353" lon="-72.576676" />
<trkpt lat="45.134202" lon="-72.576822" />
<trkpt lat="45.133615" lon="-72.577559" />
<trkpt lat="45.133398" lon="-72.577896" />
<trkpt lat="45.133321" lon="-72.577957" />
<trkpt lat="45.132942" lon="-72.578081" />
<trkpt lat="45.132709" lon="-72.578132" />
<trkpt lat="45.131691" lon="-72.578190" />
<trkpt lat="45.131562" lon="-72.578215" />
<trkpt lat="45.131426" lon="-72.578272" />
<trkpt lat="45.131283" lon="-72.578351" />
<trkpt lat="45.131189" lon="-72.578431" />
<trkpt lat="45.130811" lon="-72.578867" />
<trkpt lat="45.130312" lon="-72.579486" />
<trkpt lat="45.129918" lon="-72.580007" />
<trkpt lat="45.129148" lon="-72.581270" />
<trkpt lat="45.128165" lon="-72.582756" />
<trkpt lat="45.127441" lon="-72.583723" />
<trkpt lat="45.126632" lon="-72.584934" />
<trkpt lat="45.126536" lon="-72.585115" />
<trkpt lat="45.126450" lon="-72.585278" />
<trkpt lat="45.126308" lon="-72.585597" />
<trkpt lat="45.126242" lon="-72.585799" />
<trkpt lat="45.126191" lon="-72.586054" />
<trkpt lat="45.126132" lon="-72.586256" />
<trkpt lat="45.125658" lon="-72.587574" />
<trkpt lat="45.125490" lon="-72.587939" />
<trkpt lat="45.125415" lon="-72.588056" />
<trkpt lat="45.124410" lon="-72.589412" />
<trkpt lat="45.124152" lon="-72.589879" />
<trkpt lat="45.123501" lon="-72.590943" />
<trkpt lat="45.123024" lon="-72.591670" />
<trkpt lat="45.122724" lon="-72.592161" />
<trkpt lat="45.122384" lon="-72.592603" />
<trkpt lat="45.121231" lon="-72.594457" />
<trkpt lat="45.120910" lon="-72.595104" />
<trkpt lat="45.120759" lon="-72.595465" />
<trkpt lat="45.120710" lon="-72.595581" />
<trkpt lat="45.120436" lon="-72.596396" />
<trkpt lat="45.119818" lon="-72.598022" />
<trkpt lat="45.119372" lon="-72.599179" />
<trkpt lat="45.119131" lon="-72.599681" />
<trkpt lat="45.118895" lon="-72.600119" />
<trkpt lat="45.118371" lon="-72.600967" />
<trkpt lat="45.118026" lon="-72.601435" />
<trkpt lat="45.117724" lon="-72.601797" />
<trkpt lat="45.117331" lon="-72.602237" />
<trkpt lat="45.117266" lon="-72.602307" />
<trkpt lat="45.117144" lon="-72.602441" />
<trkpt lat="45.116919" lon="-72.602666" />
<trkpt lat="45.116625" lon="-72.602933" />
<trkpt lat="45.116231" lon="-72.603245" />
<trkpt lat="45.116059" lon="-72.603364" />
<trkpt lat="45.115327" lon="-72.603843" />
<trkpt lat="45.114824" lon="-72.604174" />
<trkpt lat="45.114625" lon="-72.604337" />
<trkpt lat="45.114438" lon="-72.604541" />
<trkpt lat="45.114320" lon="-72.604713" />
<trkpt lat="45.114181" lon="-72.604934" />
<trkpt lat="45.113934" lon="-72.605402" />
<trkpt lat="45.113566" lon="-72.606168" />
<trkpt lat="45.113449" lon="-72.606391" />
<trkpt lat="45.113225" lon="-72.606804" />
<trkpt lat="45.112954" lon="-72.607228" />
<trkpt lat="45.112730" lon="-72.607568" />
<trkpt lat="45.112536" lon="-72.607903" />
<trkpt lat="45.111407" lon="-72.610095" />
<trkpt lat="45.110639" lon="-72.611661" />
<trkpt lat="45.110189" lon="-72.612577" />
<trkpt lat="45.109788" lon="-72.611316" />
<trkpt lat="45.109644" lon="-72.610768" />
<trkpt lat="45.109598" lon="-72.610562" />
<trkpt lat="45.109364" lon="-72.609307" />
<trkpt lat="45.109298" lon="-72.608608" />
<trkpt lat="45.109178" lon="-72.608352" />
<trkpt lat="45.109145" lon="-72.608264" />
<trkpt lat="45.109070" lon="-72.608153" />
<trkpt lat="45.108989" lon="-72.608070" />
<trkpt lat="45.108786" lon="-72.607994" />
<trkpt lat="45.108406" lon="-72.607919" />
<trkpt lat="45.108090" lon="-72.607828" />
<trkpt lat="45.107938" lon="-72.607777" />
<trkpt lat="45.107807" lon="-72.607732" />
<trkpt lat="45.107727" lon="-72.607705" />
<trkpt lat="45.107765" lon="-72.607284" />
<trkpt lat="45.107767" lon="-72.607018" />
<trkpt lat="45.107740" lon="-72.606839" />
<trkpt lat="45.107705" lon="-72.606698" />
<trkpt lat="45.107465" lon="-72.605948" />
<trkpt lat="45.107151" lon="-72.604966" />
<trkpt lat="45.107135" lon="-72.604857" />
<trkpt lat="45.107140" lon="-72.604733" />
<trkpt lat="45.107154" lon="-72.604617" />
<trkpt lat="45.107213" lon="-72.604364" />
<trkpt lat="45.107762" lon="-72.602869" />
<trkpt lat="45.107794" lon="-72.602748" />
<trkpt lat="45.107809" lon="-72.602611" />
<trkpt lat="45.107815" lon="-72.602483" />
<trkpt lat="45.107813" lon="-72.602294" />
<trkpt lat="45.107751" lon="-72.601605" />
<trkpt lat="45.107648" lon="-72.600643" />
<trkpt lat="45.107507" lon="-72.599246" />
<trkpt lat="45.107422" lon="-72.598688" />
<trkpt lat="45.107307" lon="-72.598332" />
<trkpt lat="45.107138" lon="-72.597881" />
<trkpt lat="45.106919" lon="-72.597390" />
<trkpt lat="45.106600" lon="-72.596722" />
<trkpt lat="45.106503" lon="-72.596480" />
<trkpt lat="45.106425" lon="-72.596202" />
<trkpt lat="45.106380" lon="-72.595935" />
<trkpt lat="45.106356" lon="-72.595735" />
<trkpt lat="45.106330" lon="-72.595439" />
<trkpt lat="45.106320" lon="-72.595117" />
<trkpt lat="45.106296" lon="-72.594359" />
<trkpt lat="45.106205" lon="-72.590151" />
<trkpt lat="45.106170" lon="-72.588196" />
<trkpt lat="45.106168" lon="-72.588095" />
<trkpt lat="45.106158" lon="-72.587568" />
<trkpt lat="45.106088" lon="-72.585033" />
<trkpt lat="45.105984" lon="-72.581301" />
<trkpt lat="45.105965" lon="-72.580357" />
<trkpt lat="45.105842" lon="-72.575612" />
<trkpt lat="45.105808" lon="-72.573941" />
<trkpt lat="45.105792" lon="-72.573509" />
<trkpt lat="45.105742" lon="-72.572421" />
<trkpt lat="45.105632" lon="-72.569406" />
<trkpt lat="45.105596" lon="-72.568432" />
<trkpt lat="45.105529" lon="-72.566736" />
<trkpt lat="45.105474" lon="-72.565591" />
<trkpt lat="45.105415" lon="-72.564894" />
<trkpt lat="45.105056" lon="-72.562624" />
<trkpt lat="45.104910" lon="-72.561792" />
<trkpt lat="45.104895" lon="-72.561711" />
<trkpt lat="45.104883" lon="-72.561649" />
<trkpt lat="45.104840" lon="-72.561419" />
<trkpt lat="45.104699" lon="-72.561453" />
</trkseg></trk></gpx>
